STARLINK-2500           
1 48485U 21040BK  22095.53961445  .00015502  00000+0  10569-2 0  9996
2 48485  53.0541 159.7734 0001480  60.6770 299.4367 15.06415148 51465
STARLINK-2496           
1 48486U 21040BL  22095.54329216  .00014665  00000+0  10009-2 0  9990
2 48486  53.0544 159.7565 0001580  46.8788 313.2333 15.06417859 50184
STARLINK-2494           
1 48487U 21040BM  22095.61334075  .00018753  00000+0  12740-2 0  9994
2 48487  53.0511 159.4474 0001705  48.3273 311.7861 15.06413523 51487
STARLINK-2063           
1 48553U 21041A   22095.45758162  .00002027  00000+0  15493-3 0  9994
2 48553  53.0554  90.1447 0001401  67.1343 292.9794 15.06402598 49032
STARLINK-2139           
1 48554U 21041B   22095.46496309  .00004918  00000+0  34880-3 0  9990
2 48554  53.0538  90.1074 0001407  83.0924 277.0225 15.06404549 49030
STARLINK-2145           
1 48555U 21041C   22095.49353565  .00004551  00000+0  32415-3 0  9995
2 48555  53.0526  99.9781 0001834  56.2972 303.8192 15.06411885 48894
STARLINK-2151           
1 48556U 21041D   22095.48246861  .00001557  00000+0  12343-3 0  9996
2 48556  53.0539 100.0306 0001622  55.7560 304.3582 15.06400908 48891
STARLINK-2155           
1 48557U 21041E   22095.48707334 -.00001894  00000+0 -10830-3 0  9999
2 48557  53.0542  90.0152 0001911  64.4731 295.6455 15.06400960 49037
STARLINK-2166           
1 48558U 21041F   22095.54973554  .00004870  00000+0  34553-3 0  9999
2 48558  53.0540  89.7243 0001425  67.6430 292.4709 15.06407641 48188
STARLINK-2167           
1 48559U 21041G   22095.38661369  .00003425  00000+0  24866-3 0  9991
2 48559  53.0536  90.4448 0001715  60.1694 299.9466 15.06406761 49019
STARLINK-2186           
1 48561U 21041J   22095.66667824 -.00018893  00000+0 -12532-2 0  9990
2 48561  53.0540  59.2005 0001302  75.0222  69.7663 15.06388721 49885
STARLINK-2187           
1 48562U 21041K   22095.59396418  .00002518  00000+0  18790-3 0  9999
2 48562  53.0537  89.5266 0001237  68.4044 291.7076 15.06397546 49455
STARLINK-2188           
1 48563U 21041L   22095.47970865  .00010463  00000+0  71998-3 0  9998
2 48563  53.0541  90.0472 0001647  65.2546 294.8615 15.06413784 49034
STARLINK-2190           
1 48564U 21041M   22095.40598691  .00006541  00000+0  45750-3 0  9994
2 48564  53.0537  90.3775 0001720  58.5158 301.5999 15.06408179 49027
STARLINK-2191           
1 48565U 21041N   22095.46864900  .00004200  00000+0  30067-3 0  9995
2 48565  53.0531  90.0934 0001425  67.8717 292.2423 15.06404004 49034
STARLINK-2214           
1 48566U 21041P   22095.42624215  .00003683  00000+0  26598-3 0  9993
2 48566  53.0527 100.2801 0001616  59.6733 300.4416 15.06400908 48881
STARLINK-2215           
1 48567U 21041Q   22095.43824711  .00010640  00000+0  73187-3 0  9995
2 48567  53.0542 100.2200 0001700  63.2451 296.8712 15.06413676 48887
STARLINK-2217           
1 48568U 21041R   22095.38387167  .00001303  00000+0  10637-3 0  9996
2 48568  53.0549  90.4682 0001430  64.3846 295.7291 15.06400759 49013
STARLINK-2219           
1 48569U 21041S   22095.40967619  .00007534  00000+0  52406-3 0  9998
2 48569  53.0542  90.3650 0001600  58.8450 301.2696 15.06406293 49021
STARLINK-2220           
1 48570U 21041T   22095.39769420  .00003075  00000+0  22524-3 0  9992
2 48570  53.0534 100.3990 0001409  50.9828 309.1287 15.06400417 48879
STARLINK-2221           
1 48571U 21041U   22095.53776517  .00002007  00000+0  15361-3 0  9999
2 48571  53.0533  99.7859 0001517  56.8536 303.2598 15.06395269 49302
STARLINK-2222           
1 48572U 21041V   22095.40138618  .00002542  00000+0  18950-3 0  9991
2 48572  53.0554 100.3921 0001481  74.5126 285.6026 15.06390773 48883
STARLINK-2224           
1 48573U 21041W   22095.38017858 -.00002441  00000+0 -14487-3 0  9992
2 48573  53.0542  90.4724 0001371  44.7680 315.3420 15.06431824 49011
STARLINK-2225           
1 48574U 21041X   22095.58335648 -.00040386  00000+0 -27074-2 0  9990
2 48574  53.0543  59.5662 0001526  53.6776 178.9930 15.06405178  3615
STARLINK-2227           
1 48575U 21041Y   22095.66667824 -.00008417  00000+0 -54692-3 0  9990
2 48575  53.0558  49.2043 0001471  59.8837 299.8506 15.06394055 50082
STARLINK-2228           
1 48576U 21041Z   22095.66667824 -.00014072  00000+0 -92809-3 0  9997
2 48576  53.0580  64.1329 0001736  48.6341 143.5072 15.06382238 49868
STARLINK-2231           
1 48577U 21041AA  22095.37281479  .00003068  00000+0  22479-3 0  9991
2 48577  53.0532  90.5100 0001550  60.2258 299.8885 15.06400652 49012
STARLINK-2232           
1 48578U 21041AB  22095.41978259  .00007315  00000+0  50927-3 0  9994
2 48578  53.0536  90.3107 0001480  61.5712 298.5426 15.06413717 49027
STARLINK-2233           
1 48579U 21041AC  22095.49447567  .00010667  00000+0  73368-3 0  9994
2 48579  53.0531  89.9776 0001819  62.8103 297.3071 15.06411231 49036
STARLINK-2234           
1 48580U 21041AD  22095.58335648 -.00057635  00000+0 -38801-2 0  9992
2 48580  53.0542  64.5871 0001484  69.7886 235.3631 15.06415975  3603
STARLINK-2235           
1 48581U 21041AE  22095.58335648 -.00081279  00000+0 -54965-2 0  9993
2 48581  53.0557  54.5783 0001504  63.7534  96.3973 15.06425896  3616
STARLINK-2236           
1 48582U 21041AF  22095.66667824 -.00025746  00000+0 -17162-2 0  9992
2 48582  53.0547  54.1875 0001409  65.7163   6.5419 15.06391423 50009
STARLINK-2237           
1 48583U 21041AG  22095.40875251  .00000135  00000+0  27941-4 0  9991
2 48583  53.0536 100.3613 0001511  63.5480 296.5663 15.06396623 48886
STARLINK-2238           
1 48584U 21041AH  22095.44930083  .00002622  00000+0  19488-3 0  9990
2 48584  53.0541 100.1787 0001685  50.0381 310.0756 15.06393608 48881
STARLINK-2240           
1 48585U 21041AJ  22095.39402462  .00002449  00000+0  18332-3 0  9994
2 48585  53.0555 100.4350 0001854  59.0319 301.0852 15.06392203 48870
STARLINK-2241           
1 48586U 21041AK  22095.38663822  .00002767  00000+0  20456-3 0  9996
2 48586  53.0542 100.4621 0001615  54.4211 305.6928 15.06399614 48870
STARLINK-2242           
1 48587U 21041AL  22095.52302015  .00002760  00000+0  20412-3 0  9992
2 48587  53.0561  99.8196 0001518  66.8134 293.3015 15.06400380 48898
STARLINK-2244           
1 48588U 21041AM  22095.36912588  .00003471  00000+0  25178-3 0  9991
2 48588  53.0535  90.5353 0001447  63.7012 296.4125 15.06406617 49015
STARLINK-2245           
1 48589U 21041AN  22095.49814241  .00007077  00000+0  49337-3 0  9992
2 48589  53.0539  89.9569 0001570  64.4829 295.6322 15.06409596 49033
STARLINK-2246           
1 48590U 21041AP  22095.39593252  .00011521  11160-4  44521-4 0  9993
2 48590  53.0506  76.1228 0002269  38.8609 321.2580 15.91842498 49214
STARLINK-2248           
1 48591U 21041AQ  22095.48245010  .00003925  00000+0  28224-3 0  9996
2 48591  53.0593  90.0034 0001595  58.4949 301.6196 15.06401878 49930
STARLINK-2249           
1 48592U 21041AR  22095.48984553  .00002532  00000+0  18885-3 0  9994
2 48592  53.0542 100.0004 0001466  68.0680 292.0465 15.06396915 48891
STARLINK-2250           
1 48593U 21041AS  22095.49721893  .00003312  00000+0  24113-3 0  9990
2 48593  53.0546  99.9681 0001582  59.8896 300.2250 15.06401180 48894
STARLINK-2251           
1 48594U 21041AT  22095.66667824 -.00018893  00000+0 -12530-2 0  9994
2 48594  53.0545  69.1878 0001494  86.3763   3.3945 15.06395303 49792
STARLINK-2252           
1 48595U 21041AU  22095.41243703  .00002413  00000+0  18087-3 0  9997
2 48595  53.0539 100.3438 0001429  55.7273 304.3851 15.06395280 50156
STARLINK-2253           
1 48596U 21041AV  22095.50090301  .00003410  00000+0  24767-3 0  9992
2 48596  53.0545  99.9518 0001706  48.6052 311.5084 15.06403121 49352
STARLINK-2255           
1 48597U 21041AW  22095.44193610  .00008540  00000+0  59138-3 0  9992
2 48597  53.0538 100.2207 0001643  71.0399 289.0768 15.06406726 50152
STARLINK-2256           
1 48598U 21041AX  22095.51196910  .00003031  00000+0  22233-3 0  9993
2 48598  53.0543  99.8907 0001502  66.4928 293.6219 15.06395077 49357
STARLINK-2274           
1 48599U 21041AY  22095.33918236  .00002621  00000+0  19482-3 0  9993
2 48599  53.0552  75.6601 0001640  63.1862 296.9295 15.06399164 50493
STARLINK-2275           
1 48600U 21041AZ  22095.44284700  .00005735  00000+0  40357-3 0  9994
2 48600  53.0537  90.1898 0001667  76.4854 283.6321 15.06401552 50292
STARLINK-2713           
1 48602U 21041BB  22095.30601134  .00005635  00000+0  39690-3 0  9992
2 48602  53.0550  75.8128 0001773  60.6465 299.4701 15.06401011 50473
STARLINK-2714           
1 48603U 21041BC  22095.61698151  .00005315  00000+0  37536-3 0  9994
2 48603  53.0537  69.4143 0001684  57.3042 302.8109 15.06411451 50605
STARLINK-2757           
1 48604U 21041BD  22095.41981421  .00003023  00000+0  22174-3 0  9994
2 48604  53.0547 100.3144 0001755  51.2001 308.9144 15.06397394 50155
CAPELLA-6-WHITNEY       
1 48605U 21041BE  22095.53429692  .00012949  00000+0  10515-2 0  9997
2 48605  53.0333 116.1061 0011863 186.0542 174.0302 14.99886851 48652
TYVAK-0130              
1 48606U 21041BF  22095.52252052  .00003074  00000+0  28155-3 0  9990
2 48606  53.0303 117.9669 0013989 182.3332 177.7590 14.97661554 48625
SBIRS GEO-5 (USA 315)   
1 48618U 21042A   22095.38452178  .00000040  00000+0  00000+0 0  9994
2 48618   7.4708 326.5126 0005162 212.4694 161.5801  1.00273519  3386
TDO-3                   
1 48619U 21042B   22095.52116727  .00571926 -37498-5  10536-2 0  9990
2 48619  26.1412 166.6182 1623708  74.5658 302.7272 12.54811940 36858
TDO-4                   
1 48620U 21042C   22095.46339963  .00602397 -38769-5  10560-2 0  9990
2 48620  26.1347 155.0258 1564194  94.4051 283.6051 12.68377213 37032
HAIYANG-2D              
1 48621U 21043A   22095.48613022 -.00000015  00000+0  60214-4 0  9998
2 48621  65.9978 163.0885 0009352 281.5001  78.5014 13.83373673 44449
